{"fetched_at":"2026-07-15T06:36:08.770Z","source":"https://celestrak.org/NORAD/elements/gp.php?NAME=ICEYE&FORMAT=JSON","constellation":"iceye","records":[{"OBJECT_NAME":"ICEYE-X2","OBJECT_ID":"2018-099AU","EPOCH":"2026-07-14T23:04:04.740672","CLASSIFICATION_TYPE":"U","MEAN_MOTION":15.18038095,"ECCENTRICITY":0.00097361,"INCLINATION":97.4346,"RA_OF_ASC_NODE":249.3157,"ARG_OF_PERICENTER":196.524,"MEAN_ANOMALY":163.5678,"EPHEMERIS_TYPE":0,"NORAD_CAT_ID":43800,"ELEMENT_SET_NO":999,"REV_AT_EPOCH":41703,"BSTAR":0.00016517112,"MEAN_MOTION_DOT":0.00003298,"MEAN_MOTION_DDOT":0},{"OBJECT_NAME":"ICEYE-X4","OBJECT_ID":"2019-038D","EPOCH":"2026-07-14T22:26:48.853824","CLASSIFICATION_TYPE":"U","MEAN_MOTION":15.29878464,"ECCENTRICITY":0.00128355,"INCLINATION":97.8745,"RA_OF_ASC_NODE":230.4894,"ARG_OF_PERICENTER":199.0093,"MEAN_ANOMALY":161.0669,"EPHEMERIS_TYPE":0,"NORAD_CAT_ID":44390,"ELEMENT_SET_NO":999,"REV_AT_EPOCH":38604,"BSTAR":0.00023271012,"MEAN_MOTION_DOT":0.00006664,"MEAN_MOTION_DDOT":0},{"OBJECT_NAME":"ICEYE-X7","OBJECT_ID":"2020-068L","EPOCH":"2026-07-14T23:16:05.329632","CLASSIFICATION_TYPE":"U","MEAN_MOTION":15.32093524,"ECCENTRICITY":0.0006003,"INCLINATION":97.7506,"RA_OF_ASC_NODE":163.7724,"ARG_OF_PERICENTER":213.8768,"MEAN_ANOMALY":146.209,"EPHEMERIS_TYPE":0,"NORAD_CAT_ID":46496,"ELEMENT_SET_NO":999,"REV_AT_EPOCH":31904,"BSTAR":0.00020268812,"MEAN_MOTION_DOT":0.00006198,"MEAN_MOTION_DDOT":0},{"OBJECT_NAME":"ICEYE-X6","OBJECT_ID":"2020-068M","EPOCH":"2026-07-14T23:45:41.927904","CLASSIFICATION_TYPE":"U","MEAN_MOTION":15.04666554,"ECCENTRICITY":0.00072472,"INCLINATION":98.0989,"RA_OF_ASC_NODE":190.9944,"ARG_OF_PERICENTER":11.046,"MEAN_ANOMALY":349.0923,"EPHEMERIS_TYPE":0,"NORAD_CAT_ID":46497,"ELEMENT_SET_NO":999,"REV_AT_EPOCH":31741,"BSTAR":0.00012116349,"MEAN_MOTION_DOT":0.00001637,"MEAN_MOTION_DDOT":0},{"OBJECT_NAME":"ICEYE-X21","OBJECT_ID":"2023-001AS","EPOCH":"2026-06-24T05:11:18.420288","CLASSIFICATION_TYPE":"U","MEAN_MOTION":16.24069885,"ECCENTRICITY":0.00123774,"INCLINATION":97.3001,"RA_OF_ASC_NODE":262.6152,"ARG_OF_PERICENTER":285.9702,"MEAN_ANOMALY":74.0225,"EPHEMERIS_TYPE":0,"NORAD_CAT_ID":55049,"ELEMENT_SET_NO":999,"REV_AT_EPOCH":19475,"BSTAR":0.000602142,"MEAN_MOTION_DOT":0.01585954,"MEAN_MOTION_DDOT":0.000002396838},{"OBJECT_NAME":"ICEYE-X25","OBJECT_ID":"2023-084AH","EPOCH":"2026-07-14T22:22:38.631648","CLASSIFICATION_TYPE":"U","MEAN_MOTION":15.62808585,"ECCENTRICITY":0.00042803,"INCLINATION":97.5909,"RA_OF_ASC_NODE":344.1494,"ARG_OF_PERICENTER":186.1873,"MEAN_ANOMALY":173.9332,"EPHEMERIS_TYPE":0,"NORAD_CAT_ID":56963,"ELEMENT_SET_NO":999,"REV_AT_EPOCH":17230,"BSTAR":0.00033706207,"MEAN_MOTION_DOT":0.00030282,"MEAN_MOTION_DDOT":0},{"OBJECT_NAME":"ICEYE-X31","OBJECT_ID":"2023-174AJ","EPOCH":"2026-07-14T23:26:31.982784","CLASSIFICATION_TYPE":"U","MEAN_MOTION":15.35173413,"ECCENTRICITY":0.00026851,"INCLINATION":97.3777,"RA_OF_ASC_NODE":271.7244,"ARG_OF_PERICENTER":186.5548,"MEAN_ANOMALY":173.5661,"EPHEMERIS_TYPE":0,"NORAD_CAT_ID":58288,"ELEMENT_SET_NO":999,"REV_AT_EPOCH":14901,"BSTAR":0.00030757379,"MEAN_MOTION_DOT":0.00010424,"MEAN_MOTION_DDOT":0},{"OBJECT_NAME":"ICEYE-X34","OBJECT_ID":"2023-174AQ","EPOCH":"2026-07-14T19:28:45.150816","CLASSIFICATION_TYPE":"U","MEAN_MOTION":15.71211377,"ECCENTRICITY":0.00017156,"INCLINATION":97.387,"RA_OF_ASC_NODE":288.4542,"ARG_OF_PERICENTER":217.3845,"MEAN_ANOMALY":142.7298,"EPHEMERIS_TYPE":0,"NORAD_CAT_ID":58294,"ELEMENT_SET_NO":999,"REV_AT_EPOCH":15007,"BSTAR":0.00085050486,"MEAN_MOTION_DOT":0.00108394,"MEAN_MOTION_DDOT":0},{"OBJECT_NAME":"ICEYE-X35","OBJECT_ID":"2023-174AY","EPOCH":"2026-07-14T22:23:53.084256","CLASSIFICATION_TYPE":"U","MEAN_MOTION":15.55134758,"ECCENTRICITY":0.00077905,"INCLINATION":97.3793,"RA_OF_ASC_NODE":281.3232,"ARG_OF_PERICENTER":108.5474,"MEAN_ANOMALY":251.6627,"EPHEMERIS_TYPE":0,"NORAD_CAT_ID":58302,"ELEMENT_SET_NO":999,"REV_AT_EPOCH":14965,"BSTAR":0.00047720331,"MEAN_MOTION_DOT":0.00032169,"MEAN_MOTION_DDOT":0},{"OBJECT_NAME":"ICEYE-X38","OBJECT_ID":"2024-043C","EPOCH":"2026-07-14T23:03:41.870592","CLASSIFICATION_TYPE":"U","MEAN_MOTION":15.13089584,"ECCENTRICITY":0.00023778,"INCLINATION":97.8436,"RA_OF_ASC_NODE":340.4807,"ARG_OF_PERICENTER":22.1492,"MEAN_ANOMALY":337.9841,"EPHEMERIS_TYPE":0,"NORAD_CAT_ID":59100,"ELEMENT_SET_NO":999,"REV_AT_EPOCH":11587,"BSTAR":0.00014841638,"MEAN_MOTION_DOT":0.00002556,"MEAN_MOTION_DDOT":0},{"OBJECT_NAME":"ICEYE-X37","OBJECT_ID":"2024-043E","EPOCH":"2026-07-14T22:47:39.070464","CLASSIFICATION_TYPE":"U","MEAN_MOTION":15.06289145,"ECCENTRICITY":0.00138145,"INCLINATION":97.8338,"RA_OF_ASC_NODE":333.3943,"ARG_OF_PERICENTER":275.0328,"MEAN_ANOMALY":84.9321,"EPHEMERIS_TYPE":0,"NORAD_CAT_ID":59102,"ELEMENT_SET_NO":999,"REV_AT_EPOCH":12926,"BSTAR":0.00010788676,"MEAN_MOTION_DOT":0.00001521,"MEAN_MOTION_DDOT":0},{"OBJECT_NAME":"ICEYE-X36","OBJECT_ID":"2024-043F","EPOCH":"2026-07-14T22:29:44.547360","CLASSIFICATION_TYPE":"U","MEAN_MOTION":15.07232046,"ECCENTRICITY":0.00053261,"INCLINATION":97.8399,"RA_OF_ASC_NODE":334.5108,"ARG_OF_PERICENTER":215.4833,"MEAN_ANOMALY":144.604,"EPHEMERIS_TYPE":0,"NORAD_CAT_ID":59103,"ELEMENT_SET_NO":999,"REV_AT_EPOCH":12932,"BSTAR":0.00018734085,"MEAN_MOTION_DOT":0.00002757,"MEAN_MOTION_DDOT":0},{"OBJECT_NAME":"ICEYE-X43","OBJECT_ID":"2024-149BZ","EPOCH":"2026-07-14T18:49:48.533664","CLASSIFICATION_TYPE":"U","MEAN_MOTION":14.99785896,"ECCENTRICITY":0.00065895,"INCLINATION":97.68,"RA_OF_ASC_NODE":272.3796,"ARG_OF_PERICENTER":349.7264,"MEAN_ANOMALY":10.3824,"EPHEMERIS_TYPE":0,"NORAD_CAT_ID":60539,"ELEMENT_SET_NO":999,"REV_AT_EPOCH":10425,"BSTAR":0.000070364235,"MEAN_MOTION_DOT":0.00000811,"MEAN_MOTION_DDOT":0},{"OBJECT_NAME":"ICEYE-X39","OBJECT_ID":"2024-149CG","EPOCH":"2026-07-14T16:40:06.022560","CLASSIFICATION_TYPE":"U","MEAN_MOTION":15.00070846,"ECCENTRICITY":0.00069804,"INCLINATION":97.6789,"RA_OF_ASC_NODE":272.3471,"ARG_OF_PERICENTER":48.2807,"MEAN_ANOMALY":311.9012,"EPHEMERIS_TYPE":0,"NORAD_CAT_ID":60546,"ELEMENT_SET_NO":999,"REV_AT_EPOCH":10424,"BSTAR":0.00019017714,"MEAN_MOTION_DOT":0.00002311,"MEAN_MOTION_DDOT":0},{"OBJECT_NAME":"ICEYE-X33","OBJECT_ID":"2024-149CJ","EPOCH":"2026-07-14T18:28:32.706336","CLASSIFICATION_TYPE":"U","MEAN_MOTION":15.00882745,"ECCENTRICITY":0.00018733,"INCLINATION":97.7366,"RA_OF_ASC_NODE":274.772,"ARG_OF_PERICENTER":75.6898,"MEAN_ANOMALY":284.4534,"EPHEMERIS_TYPE":0,"NORAD_CAT_ID":60548,"ELEMENT_SET_NO":999,"REV_AT_EPOCH":10434,"BSTAR":0.00023057574,"MEAN_MOTION_DOT":0.00002874,"MEAN_MOTION_DDOT":0}]}
