ICEYE-X2                
1 43800U 18099AU  26195.96116598  .00003298  00000+0  16517-3 0  9994
2 43800  97.4346 249.3157 0009736 196.5240 163.5678 15.18038095417034
ICEYE-X4                
1 44390U 19038D   26195.93528766  .00006664  00000+0  23271-3 0  9999
2 44390  97.8745 230.4894 0012835 199.0093 161.0669 15.29878464386046
ICEYE-X7                
1 46496U 20068L   26195.96950613  .00006198  00000+0  20269-3 0  9992
2 46496  97.7506 163.7724 0006003 213.8768 146.2090 15.32093524319042
ICEYE-X6                
1 46497U 20068M   26195.99006861  .00001637  00000+0  12116-3 0  9998
2 46497  98.0989 190.9944 0007247  11.0460 349.0923 15.04666554317411
ICEYE-X21               
1 55049U 23001AS  26175.21618542  .01585954  23968-5  60214-3 0  9995
2 55049  97.3001 262.6152 0012377 285.9702  74.0225 16.24069885194757
ICEYE-X25               
1 56963U 23084AH  26195.93239157  .00030282  00000+0  33706-3 0  9994
2 56963  97.5909 344.1494 0004280 186.1873 173.9332 15.62808585172306
ICEYE-X31               
1 58288U 23174AJ  26195.97675906  .00010424  00000+0  30757-3 0  9995
2 58288  97.3777 271.7244 0002685 186.5548 173.5661 15.35173413149015
ICEYE-X34               
1 58294U 23174AQ  26195.81163369  .00108394  00000+0  85050-3 0  9990
2 58294  97.3870 288.4542 0001715 217.3845 142.7298 15.71211377150072
ICEYE-X35               
1 58302U 23174AY  26195.93325329  .00032169  00000+0  47720-3 0  9997
2 58302  97.3793 281.3232 0007790 108.5474 251.6627 15.55134758149659
ICEYE-X38               
1 59100U 24043C   26195.96090128  .00002556  00000+0  14842-3 0  9995
2 59100  97.8436 340.4807 0002377  22.1492 337.9841 15.13089584115870
ICEYE-X37               
1 59102U 24043E   26195.94975776  .00001521  00000+0  10789-3 0  9993
2 59102  97.8338 333.3943 0013814 275.0328  84.9321 15.06289145129267
ICEYE-X36               
1 59103U 24043F   26195.93732115  .00002757  00000+0  18734-3 0  9991
2 59103  97.8399 334.5108 0005326 215.4833 144.6040 15.07232046129327
ICEYE-X43               
1 60539U 24149BZ  26195.78458951  .00000811  00000+0  70364-4 0  9996
2 60539  97.6800 272.3796 0006589 349.7264  10.3824 14.99785896104250
ICEYE-X39               
1 60546U 24149CG  26195.69451415  .00002311  00000+0  19018-3 0  9997
2 60546  97.6789 272.3471 0006980  48.2807 311.9012 15.00070846104246
ICEYE-X33               
1 60548U 24149CJ  26195.76982299  .00002874  00000+0  23058-3 0  9999
2 60548  97.7366 274.7720 0001873  75.6898 284.4534 15.00882745104346
